#cP2017  6 17  0  0  0.00000000      96 ORBIT IGS14 HLM  IGS
## 1953 518400.00000000   900.00000000 57921 0.0000000000000
+   32   G01G02G03G04G05G06G07G08G09G10G11G12G13G14G15G16G17
+        G18G19G20G21G22G23G24G25G26G27G28G29G30G31G32  0  0
+          0  0  0  0  0  0  0  0  0  0  0  0  0  0  0  0  0
+          0  0  0  0  0  0  0  0  0  0  0  0  0  0  0  0  0
+          0  0  0  0  0  0  0  0  0  0  0  0  0  0  0  0  0
++         2  2  2  0  2  2  2  2  2  2  2  2  3  2  3  2  2
++         2  2  3  2  2  2  2  2  2  2  2  2  3  2  2  0  0
++         0  0  0  0  0  0  0  0  0  0  0  0  0  0  0  0  0
++         0  0  0  0  0  0  0  0  0  0  0  0  0  0  0  0  0
++         0  0  0  0  0  0  0  0  0  0  0  0  0  0  0  0  0
%c G  cc GPS ccc cccc cccc cccc cccc ccccc ccccc ccccc ccccc
%c cc cc ccc ccc cccc cccc cccc cccc ccccc ccccc ccccc ccccc
%f  1.2500000  1.025000000  0.00000000000  0.000000000000000
%f  0.0000000  0.000000000  0.00000000000  0.000000000000000
%i    0    0    0    0      0      0      0      0         0
%i    0    0    0    0      0      0      0      0         0
/* RAPID ORBIT COMBINATION FROM WEIGHTED AVERAGE OF:        
/* cod emr esa gfz jpl ngs sio usn whu                      
/* REFERENCED TO IGS TIME (IGST) AND TO WEIGHTED MEAN POLE: 
/* PCV:IGS14_1930 OL/AL:FES2004  NONE     Y  ORB:CMB CLK:CMB
*  2017  6 17  8 15  0.00000000
PG01 -15624.347549   -220.520161  21396.916838     55.968518  6  7  1 125       
PG02  15037.630501  19849.327451  -9171.246340    396.697576  5 10  6  94       
PG03 -20848.586045  10256.390556  12835.343059    -94.182509  5  4  5 130       
PG04  -9186.712637 -24200.788198  -6868.773294 999999.999999
PG05  12539.087722   9259.501132 -21595.344516    -41.119518  5  6  6  97       
PG06   5705.189173  25565.105339   4364.105253    365.488087  6  4  3  82       
PG07  -9476.684200  14918.942939 -19506.673333    338.816625  2  4  4  72       
PG08 -25930.887738  -5797.782674  -1468.717609    -63.416260  3  6  9 121       
PG09 -17313.406631   9614.739678 -17724.975378    386.514493  4  3    107       
PG10   7463.854248 -22123.724661  12581.069626    -22.418391  4  6  5  61       
PG11 -20432.156277  -3974.910444  15895.482303   -695.910858  6  7  6  76       
PG12  19933.715623  -4757.669657  16618.332811    381.175585  5  5  6  73       
PG13  22302.522533  12410.781079  -7378.311960    -85.436822  7  9  7 112       
PG14  -8971.324475 -16373.710394  19231.258939    -74.645466  8  7  6 101       
PG15  26602.330649   1374.279567   2420.030900   -351.857868 11 11  7  96       
PG16 -10467.949069 -10246.584245 -22287.663896     34.951226  7 11  6 108       
PG17  -1073.942313  15066.726267  22214.327175   -174.279011  5  7  7  79       
PG18  13622.692143 -22374.190825   4254.948988    620.348149  4  7  6  73       
PG19   7585.591887  15939.031452  19479.933925   -499.398705  6  8  6  83       
PG20  19819.293323  -6264.629210 -16674.199542    476.420365  8  5  7 124       
PG21   4680.745576 -20054.841783 -15930.495541   -500.366856  6  8  7  97       
PG22 -19089.682858   1354.621610  18687.877293    -25.280575  6  8  4 116       
PG23 -24974.005559   2127.604691  -9179.102282   -213.696404  7  7  7 101       
PG24  16795.206372   2787.482247  20354.635189    -36.302923  5  6  7  86       
PG25  19729.270589 -16549.945593   5868.400279   -406.223832  5  3  7  86       
PG26  -2239.702511 -18203.202503 -19186.520986   -489.642519  7  7  2  80       
PG27 -20139.421935 -12371.284368 -12390.940571    277.285777  6  8  7 106       
PG28 -11595.475147  21500.462144  11052.714404    621.643986  6  6  7 111       
PG29  19967.070920  -6203.381925 -16371.435357    594.267568  6  5  7 120       
PG30  -1490.497040  24052.467862 -11010.809284    153.648497  8  7  7  46       
PG31  -6312.012720 -25491.219436   2177.066378    194.161818  6  6  8 107       
PG32  -1158.431615 -15596.586598  21496.675389   -442.195233  7  4  5  96       
*  2017  6 17  8 30  0.00000000
PG01 -16428.289853  -2507.920410  20664.342482     55.968889  6  7  2 125       
PG02  15181.721566  20829.461119  -6557.600918    396.690186  4 10  6  90       
PG03 -19996.742717   8892.002032  15024.618459    -94.180187  6  4  5 133       
PG04  -9194.703770 -24870.312446  -4088.057801 999999.999999
PG05  11009.700248  11177.572040 -21502.698837    -41.117837  6  7  6  93       
PG06   5256.495444  25035.731470   7133.232978    365.492665  6  4  3  62       
PG07 -10374.886564  12754.339076 -20585.445259    338.812776     4  4  93       
PG08 -25565.952953  -5974.254818  -4305.881967    -63.417369  4  6  9 127       
PG09 -19190.914454   9158.886869 -15942.540657    386.521779  4  4    108       
PG10   8457.813967 -22992.049761  10144.164433    -22.407634  4  6  5  68       
PG11 -21469.094126  -5504.668030  14022.781687   -695.913396  6  7  6 133       
PG12  18649.671409  -3175.785216  18392.712157    381.174866  6  6  7  63       
PG13  21300.344183  12348.582786 -10017.115670    -85.437541  7  9  7 117       
PG14  -6799.539828 -15948.583117  20443.147136    -74.646444  8  6  5 106       
PG15  26710.130552   1700.975631   -346.208066   -351.858309 11 11  7  99       
PG16  -8723.679907 -12045.403999 -22102.522609     34.951832  8 10  6 104       
PG17  -3484.328035  14560.133773  22292.729919   -174.277388  5  6  6  93       
PG18  14076.295478 -22374.119338   1485.498636    620.349094  4  6  6  72       
PG19   5283.822123  15441.360405  20616.307797   -499.397149  6  7  6  86       
PG20  18887.422888  -4501.406454 -18263.751741    476.421954  8  6  7 117       
PG21   5689.964330 -18238.039126 -17624.250709   -500.364597  6  8  8 104       
PG22 -17916.979111   -476.942225  19865.631940    -25.291782  6  7  4 108       
PG23 -25848.257744   1738.164028  -6576.783140   -213.697177  8  7  7 101       
PG24  17582.200213   4933.815748  19280.346896    -36.304153  5  6  7  86       
PG25  19358.232946 -15755.152519   8605.615937   -406.229773  4  4  7  96       
PG26   -817.517952 -19770.724868 -17681.821810   -489.637202  7  7  2  63       
PG27 -18605.070076 -12287.870873 -14655.325737    277.292021  7  8  8 110       
PG28 -12414.304004  22143.227553   8434.747709    621.646539  6  5  7 106       
PG29  21645.252052  -5687.448622 -14290.131858    594.264476  6  5  7 120       
PG30  -2149.330653  22791.346366 -13350.127537    153.647303  7  7  6  58       
PG31  -5929.292290 -25190.618831   5028.921411    194.159895  6  6  8  97       
PG32   1285.345696 -15242.411136  21737.695894   -442.203602  6  4  5  98       
*  2017  6 17  8 45  0.00000000
PG01 -17309.778851  -4651.946555  19574.485653     55.969258  6  7  4 115       
PG02  15240.893104  21528.385234  -3831.493782    396.682734  4  9  6  94       
PG03 -19080.369998   7296.192878  16954.910040    -94.177914  6  4  5 124       
PG04  -9156.318940 -25232.981239  -1239.028594 999999.999999
PG05   9594.675676  13145.916988 -21042.461657    -41.116284  7  7  5  91       
PG06   4653.478344  24251.632553   9779.555235    365.497346  5  4  3  89       
PG07 -11421.920471  10547.287729 -21301.294198    338.808737     4  4  97       
PG08 -24895.305716  -6142.056651  -7069.306031    -63.418378  5  6  8 113       
PG09 -20873.257902   8818.895361 -13886.271091    386.529108  5  4    109       
PG10   9239.538047 -23677.798832   7531.793827    -22.396880  4  6  5  66       
PG11 -22401.894848  -6830.185055  11899.442277   -695.916005  6  7  7 128       
PG12  17340.037904  -1381.287951  19844.275828    381.174186  7  7  8  51       
PG13  20014.843611  12277.570270 -12483.924564    -85.438427  7  7  7 125       
PG14  -4493.438571 -15619.049486  21312.791227    -74.647707  7  5  5 108       
PG15  26524.961700   2011.441631  -3106.639339   -351.858776 11 10  7 116       
PG16  -7108.878182 -13911.146161 -21540.499460     34.952110  8 10  6  99       
PG17  -5909.146002  14191.246320  21999.949480   -174.275640  5  6  5  79       
PG18  14361.586956 -22129.609760  -1309.709750    620.350530  5  5  6  69       
PG19   2852.335938  15047.047525  21387.100257   -499.395832  6  6  6  52       
PG20  17958.472797  -2558.522835 -19542.402161    476.423330  8  6  7 111       
PG21   6865.299991 -16308.092617 -18994.460691   -500.362297  6  7  7 107       
PG22 -16769.769532  -2454.996149  20708.983700    -25.302508  6  7  4  97       
PG23 -26442.919844   1423.330377  -3863.356857   -213.697455  9  7  8  84       
PG24  18412.716399   6910.040868  17874.113989    -36.304227  5  6  7  78       
PG25  18852.815791 -14694.125408  11192.026239   -406.235690  3  4  6  98       
PG26    414.614750 -21256.211662 -15872.045551   -489.631919  7  6  3  74       
PG27 -16827.633631 -12266.130651 -16670.921230    277.298230  8  8  8 112       
PG28 -13004.804903  22600.374560   5674.729974    621.649005  7  5  6 109       
PG29  23102.410640  -5303.976775 -11962.709072    594.261338  6  5  7 108       
PG30  -2959.101175  21329.437148 -15458.151036    153.646044  7  6  6           
PG31  -5409.920000 -24613.791317   7792.281961    194.157467  6  6  8  97       
PG32   3750.815284 -15014.466099  21605.528548   -442.211868  6  5  5  94       
EOF
